CCSDS_OMM_VERS = 2.0
CREATION_DATE  = 
ORIGINATOR     = 

OBJECT_NAME    = STARLINK-35807
OBJECT_ID      = 2025-254L
CENTER_NAME    = EARTH
REF_FRAME      = TEME
TIME_SYSTEM    = UTC
MEAN_ELEMENT_THEORY = SGP/SGP4

EPOCH          = 2025-12-02T06:00:02.999808
MEAN_MOTION    = 15.68534910
ECCENTRICITY   = .00012129
INCLINATION    = 53.1592
RA_OF_ASC_NODE = 327.0216
ARG_OF_PERICENTER = 101.0657
MEAN_ANOMALY   = 115.0910

EPHEMERIS_TYPE = 0
CLASSIFICATION_TYPE = U
NORAD_CAT_ID   = 66358
ELEMENT_SET_NO = 999
REV_AT_EPOCH   = 523
BSTAR          = -.1962551E-1
MEAN_MOTION_DOT = -.1996921E-1
MEAN_MOTION_DDOT = 0

CCSDS_OMM_VERS = 2.0
CREATION_DATE  = 
ORIGINATOR     = 

OBJECT_NAME    = STARLINK-35805
OBJECT_ID      = 2025-254M
CENTER_NAME    = EARTH
REF_FRAME      = TEME
TIME_SYSTEM    = UTC
MEAN_ELEMENT_THEORY = SGP/SGP4

EPOCH          = 2025-12-02T06:00:02.999808
MEAN_MOTION    = 15.68539260
ECCENTRICITY   = .00013332
INCLINATION    = 53.1590
RA_OF_ASC_NODE = 327.0180
ARG_OF_PERICENTER = 92.0627
MEAN_ANOMALY   = 126.0086

EPHEMERIS_TYPE = 0
CLASSIFICATION_TYPE = U
NORAD_CAT_ID   = 66359
ELEMENT_SET_NO = 999
REV_AT_EPOCH   = 520
BSTAR          = -.19679994E-1
MEAN_MOTION_DOT = -.2002212E-1
MEAN_MOTION_DDOT = 0

CCSDS_OMM_VERS = 2.0
CREATION_DATE  = 
ORIGINATOR     = 

OBJECT_NAME    = STARLINK-35823
OBJECT_ID      = 2025-254N
CENTER_NAME    = EARTH
REF_FRAME      = TEME
TIME_SYSTEM    = UTC
MEAN_ELEMENT_THEORY = SGP/SGP4

EPOCH          = 2025-12-02T06:00:02.999808
MEAN_MOTION    = 15.68533110
ECCENTRICITY   = .00013556
INCLINATION    = 53.1590
RA_OF_ASC_NODE = 327.0092
ARG_OF_PERICENTER = 94.3715
MEAN_ANOMALY   = 127.5388

EPHEMERIS_TYPE = 0
CLASSIFICATION_TYPE = U
NORAD_CAT_ID   = 66360
ELEMENT_SET_NO = 999
REV_AT_EPOCH   = 523
BSTAR          = -.19621177E-1
MEAN_MOTION_DOT = -.1996515E-1
MEAN_MOTION_DDOT = 0

CCSDS_OMM_VERS = 2.0
CREATION_DATE  = 
ORIGINATOR     = 

OBJECT_NAME    = STARLINK-35813
OBJECT_ID      = 2025-254P
CENTER_NAME    = EARTH
REF_FRAME      = TEME
TIME_SYSTEM    = UTC
MEAN_ELEMENT_THEORY = SGP/SGP4

EPOCH          = 2025-12-02T06:00:02.999808
MEAN_MOTION    = 15.68540811
ECCENTRICITY   = .00013659
INCLINATION    = 53.1589
RA_OF_ASC_NODE = 327.0139
ARG_OF_PERICENTER = 93.6775
MEAN_ANOMALY   = 126.3108

EPHEMERIS_TYPE = 0
CLASSIFICATION_TYPE = U
NORAD_CAT_ID   = 66361
ELEMENT_SET_NO = 999
REV_AT_EPOCH   = 523
BSTAR          = -.1971368E-1
MEAN_MOTION_DOT = -.2005366E-1
MEAN_MOTION_DDOT = 0

CCSDS_OMM_VERS = 2.0
CREATION_DATE  = 
ORIGINATOR     = 

OBJECT_NAME    = STARLINK-35822
OBJECT_ID      = 2025-254Q
CENTER_NAME    = EARTH
REF_FRAME      = TEME
TIME_SYSTEM    = UTC
MEAN_ELEMENT_THEORY = SGP/SGP4

EPOCH          = 2025-12-02T06:00:02.999808
MEAN_MOTION    = 15.68536674
ECCENTRICITY   = .00013298
INCLINATION    = 53.1591
RA_OF_ASC_NODE = 327.0017
ARG_OF_PERICENTER = 96.7697
MEAN_ANOMALY   = 128.9703

EPHEMERIS_TYPE = 0
CLASSIFICATION_TYPE = U
NORAD_CAT_ID   = 66362
ELEMENT_SET_NO = 999
REV_AT_EPOCH   = 523
BSTAR          = -.19644788E-1
MEAN_MOTION_DOT = -.1998869E-1
MEAN_MOTION_DDOT = 0

CCSDS_OMM_VERS = 2.0
CREATION_DATE  = 
ORIGINATOR     = 

OBJECT_NAME    = STARLINK-35806
OBJECT_ID      = 2025-254R
CENTER_NAME    = EARTH
REF_FRAME      = TEME
TIME_SYSTEM    = UTC
MEAN_ELEMENT_THEORY = SGP/SGP4

EPOCH          = 2025-12-02T06:00:02.999808
MEAN_MOTION    = 15.68535897
ECCENTRICITY   = .00013327
INCLINATION    = 53.1591
RA_OF_ASC_NODE = 327.0055
ARG_OF_PERICENTER = 95.8688
MEAN_ANOMALY   = 127.9541

EPHEMERIS_TYPE = 0
CLASSIFICATION_TYPE = U
NORAD_CAT_ID   = 66363
ELEMENT_SET_NO = 999
REV_AT_EPOCH   = 520
BSTAR          = -.19625307E-1
MEAN_MOTION_DOT = -.199707E-1
MEAN_MOTION_DDOT = 0

CCSDS_OMM_VERS = 2.0
CREATION_DATE  = 
ORIGINATOR     = 

OBJECT_NAME    = STARLINK-35797
OBJECT_ID      = 2025-254S
CENTER_NAME    = EARTH
REF_FRAME      = TEME
TIME_SYSTEM    = UTC
MEAN_ELEMENT_THEORY = SGP/SGP4

EPOCH          = 2025-12-02T06:00:02.999808
MEAN_MOTION    = 15.68538938
ECCENTRICITY   = .00011697
INCLINATION    = 53.1588
RA_OF_ASC_NODE = 326.9971
ARG_OF_PERICENTER = 96.0683
MEAN_ANOMALY   = 131.5859

EPHEMERIS_TYPE = 0
CLASSIFICATION_TYPE = U
NORAD_CAT_ID   = 66364
ELEMENT_SET_NO = 999
REV_AT_EPOCH   = 523
BSTAR          = -.19657704E-1
MEAN_MOTION_DOT = -.2000065E-1
MEAN_MOTION_DDOT = 0

CCSDS_OMM_VERS = 2.0
CREATION_DATE  = 
ORIGINATOR     = 

OBJECT_NAME    = STARLINK-35827
OBJECT_ID      = 2025-254T
CENTER_NAME    = EARTH
REF_FRAME      = TEME
TIME_SYSTEM    = UTC
MEAN_ELEMENT_THEORY = SGP/SGP4

EPOCH          = 2025-12-02T06:00:02.999808
MEAN_MOTION    = 15.68532822
ECCENTRICITY   = .00012531
INCLINATION    = 53.1590
RA_OF_ASC_NODE = 326.9900
ARG_OF_PERICENTER = 99.6883
MEAN_ANOMALY   = 131.8056

EPHEMERIS_TYPE = 0
CLASSIFICATION_TYPE = U
NORAD_CAT_ID   = 66365
ELEMENT_SET_NO = 999
REV_AT_EPOCH   = 520
BSTAR          = -.19607746E-1
MEAN_MOTION_DOT = -.199521E-1
MEAN_MOTION_DDOT = 0

CCSDS_OMM_VERS = 2.0
CREATION_DATE  = 
ORIGINATOR     = 

OBJECT_NAME    = STARLINK-35845
OBJECT_ID      = 2025-254U
CENTER_NAME    = EARTH
REF_FRAME      = TEME
TIME_SYSTEM    = UTC
MEAN_ELEMENT_THEORY = SGP/SGP4

EPOCH          = 2025-12-02T06:00:02.999808
MEAN_MOTION    = 15.68533746
ECCENTRICITY   = .00013875
INCLINATION    = 53.1589
RA_OF_ASC_NODE = 326.9930
ARG_OF_PERICENTER = 99.9785
MEAN_ANOMALY   = 129.5956

EPHEMERIS_TYPE = 0
CLASSIFICATION_TYPE = U
NORAD_CAT_ID   = 66366
ELEMENT_SET_NO = 999
REV_AT_EPOCH   = 523
BSTAR          = -.19598743E-1
MEAN_MOTION_DOT = -.1994577E-1
MEAN_MOTION_DDOT = 0

CCSDS_OMM_VERS = 2.0
CREATION_DATE  = 
ORIGINATOR     = 

OBJECT_NAME    = STARLINK-35846
OBJECT_ID      = 2025-254V
CENTER_NAME    = EARTH
REF_FRAME      = TEME
TIME_SYSTEM    = UTC
MEAN_ELEMENT_THEORY = SGP/SGP4

EPOCH          = 2025-12-02T06:00:02.999808
MEAN_MOTION    = 15.68540892
ECCENTRICITY   = .00013032
INCLINATION    = 53.1590
RA_OF_ASC_NODE = 326.9849
ARG_OF_PERICENTER = 91.4682
MEAN_ANOMALY   = 141.9379

EPHEMERIS_TYPE = 0
CLASSIFICATION_TYPE = U
NORAD_CAT_ID   = 66367
ELEMENT_SET_NO = 999
REV_AT_EPOCH   = 518
BSTAR          = -.19712397E-1
MEAN_MOTION_DOT = -.2005207E-1
MEAN_MOTION_DDOT = 0

CCSDS_OMM_VERS = 2.0
CREATION_DATE  = 
ORIGINATOR     = 

OBJECT_NAME    = STARLINK-34861
OBJECT_ID      = 2025-254W
CENTER_NAME    = EARTH
REF_FRAME      = TEME
TIME_SYSTEM    = UTC
MEAN_ELEMENT_THEORY = SGP/SGP4

EPOCH          = 2025-12-02T06:27:51.754464
MEAN_MOTION    = 15.74298879
ECCENTRICITY   = .00010708
INCLINATION    = 53.1569
RA_OF_ASC_NODE = 326.8523
ARG_OF_PERICENTER = 108.7628
MEAN_ANOMALY   = 251.3508

EPHEMERIS_TYPE = 0
CLASSIFICATION_TYPE = U
NORAD_CAT_ID   = 66368
ELEMENT_SET_NO = 999
REV_AT_EPOCH   = 403
BSTAR          = .19523452E-2
MEAN_MOTION_DOT = .297016E-2
MEAN_MOTION_DDOT = 0

CCSDS_OMM_VERS = 2.0
CREATION_DATE  = 
ORIGINATOR     = 

OBJECT_NAME    = STARLINK-35795
OBJECT_ID      = 2025-254X
CENTER_NAME    = EARTH
REF_FRAME      = TEME
TIME_SYSTEM    = UTC
MEAN_ELEMENT_THEORY = SGP/SGP4

EPOCH          = 2025-12-02T04:56:55.834656
MEAN_MOTION    = 15.74270448
ECCENTRICITY   = .00011623
INCLINATION    = 53.1571
RA_OF_ASC_NODE = 327.1693
ARG_OF_PERICENTER = 98.0243
MEAN_ANOMALY   = 262.0908

EPHEMERIS_TYPE = 0
CLASSIFICATION_TYPE = U
NORAD_CAT_ID   = 66369
ELEMENT_SET_NO = 999
REV_AT_EPOCH   = 402
BSTAR          = .17822521E-2
MEAN_MOTION_DOT = .269868E-2
MEAN_MOTION_DDOT = 0

CCSDS_OMM_VERS = 2.0
CREATION_DATE  = 
ORIGINATOR     = 

OBJECT_NAME    = STARLINK-35824
OBJECT_ID      = 2025-254Y
CENTER_NAME    = EARTH
REF_FRAME      = TEME
TIME_SYSTEM    = UTC
MEAN_ELEMENT_THEORY = SGP/SGP4

EPOCH          = 2025-12-02T06:27:22.673952
MEAN_MOTION    = 15.74299122
ECCENTRICITY   = .0001114
INCLINATION    = 53.1569
RA_OF_ASC_NODE = 326.8506
ARG_OF_PERICENTER = 88.1389
MEAN_ANOMALY   = 271.9758

EPHEMERIS_TYPE = 0
CLASSIFICATION_TYPE = U
NORAD_CAT_ID   = 66370
ELEMENT_SET_NO = 999
REV_AT_EPOCH   = 403
BSTAR          = .19406067E-2
MEAN_MOTION_DOT = .295163E-2
MEAN_MOTION_DDOT = 0

CCSDS_OMM_VERS = 2.0
CREATION_DATE  = 
ORIGINATOR     = 

OBJECT_NAME    = STARLINK-35804
OBJECT_ID      = 2025-254Z
CENTER_NAME    = EARTH
REF_FRAME      = TEME
TIME_SYSTEM    = UTC
MEAN_ELEMENT_THEORY = SGP/SGP4

EPOCH          = 2025-12-02T04:54:58.892256
MEAN_MOTION    = 15.74287505
ECCENTRICITY   = .00013288
INCLINATION    = 53.1567
RA_OF_ASC_NODE = 327.1601
ARG_OF_PERICENTER = 113.4891
MEAN_ANOMALY   = 246.6269

EPHEMERIS_TYPE = 0
CLASSIFICATION_TYPE = U
NORAD_CAT_ID   = 66371
ELEMENT_SET_NO = 999
REV_AT_EPOCH   = 402
BSTAR          = .18779006E-2
MEAN_MOTION_DOT = .285115E-2
MEAN_MOTION_DDOT = 0

CCSDS_OMM_VERS = 2.0
CREATION_DATE  = 
ORIGINATOR     = 

OBJECT_NAME    = STARLINK-35821
OBJECT_ID      = 2025-254AA
CENTER_NAME    = EARTH
REF_FRAME      = TEME
TIME_SYSTEM    = UTC
MEAN_ELEMENT_THEORY = SGP/SGP4

EPOCH          = 2025-12-02T04:55:28.198272
MEAN_MOTION    = 15.74281802
ECCENTRICITY   = .00012771
INCLINATION    = 53.1570
RA_OF_ASC_NODE = 327.1637
ARG_OF_PERICENTER = 91.9852
MEAN_ANOMALY   = 268.1314

EPHEMERIS_TYPE = 0
CLASSIFICATION_TYPE = U
NORAD_CAT_ID   = 66372
ELEMENT_SET_NO = 999
REV_AT_EPOCH   = 402
BSTAR          = .18837118E-2
MEAN_MOTION_DOT = .285958E-2
MEAN_MOTION_DDOT = 0

